{
  "type": "FeatureCollection",
  "features": [
    {
      "type": "Feature",
      "properties": {
        "norad_id": 54741,
        "name": "GALAXY 35 (G-35)",
        "group": "intelsat",
        "lat": -0.01467443640180793,
        "lon": -36.68067040853662,
        "alt_km": 35780.691276634665,
        "timestamp": "2025-12-07T22:37:42.751025+00:00",
        "meta_object_name": "GALAXY 35 (G-35)",
        "meta_object_id": "2022-170A",
        "meta_epoch": "2025-12-07T06:20:34.370016",
        "meta_mean_motion": 1.00271089,
        "meta_eccentricity": 0.00027148,
        "meta_inclination": 0.0095,
        "meta_ra_of_asc_node": 46.8987,
        "meta_arg_of_pericenter": 215.6872,
        "meta_mean_anomaly": 175.7605,
        "meta_ephemeris_type": 0,
        "meta_classification_type": "U",
        "meta_norad_cat_id": 54741,
        "meta_element_set_no": 999,
        "meta_rev_at_epoch": 1096,
        "meta_bstar": 0,
        "meta_mean_motion_dot": -1.58e-06,
        "meta_mean_motion_ddot": 0,
        "tle_line1": "1 54741U 22170A   25341.26428669 -.00000158  00000+0  00000+0 0  9994",
        "tle_line2": "2 54741   0.0095  46.8987 0002714 215.6872 175.7605  1.00271089 10969"
      },
      "geometry": {
        "type": "Point",
        "coordinates": [
          -36.68067040853662,
          -0.01467443640180793
        ]
      }
    },
    {
      "type": "Feature",
      "properties": {
        "norad_id": 54742,
        "name": "GALAXY 36 (G-36)",
        "group": "intelsat",
        "lat": -0.010350606895322969,
        "lon": -32.62799133668636,
        "alt_km": 35785.17977967409,
        "timestamp": "2025-12-07T22:37:42.751037+00:00",
        "meta_object_name": "GALAXY 36 (G-36)",
        "meta_object_id": "2022-170B",
        "meta_epoch": "2025-12-07T06:21:49.251168",
        "meta_mean_motion": 1.00269277,
        "meta_eccentricity": 6.275e-05,
        "meta_inclination": 0.0106,
        "meta_ra_of_asc_node": 348.9133,
        "meta_arg_of_pericenter": 286.9381,
        "meta_mean_anomaly": 166.8867,
        "meta_ephemeris_type": 0,
        "meta_classification_type": "U",
        "meta_norad_cat_id": 54742,
        "meta_element_set_no": 999,
        "meta_rev_at_epoch": 1084,
        "meta_bstar": 0,
        "meta_mean_motion_dot": 0,
        "meta_mean_motion_ddot": 0,
        "tle_line1": "1 54742U 22170B   25341.26515337  .00000000  00000+0  00000+0 0  9999",
        "tle_line2": "2 54742   0.0106 348.9133 0000627 286.9381 166.8867  1.00269277 10843"
      },
      "geometry": {
        "type": "Point",
        "coordinates": [
          -32.62799133668636,
          -0.010350606895322969
        ]
      }
    },
    {
      "type": "Feature",
      "properties": {
        "norad_id": 57493,
        "name": "GALAXY 37 (G-37)",
        "group": "intelsat",
        "lat": -0.02326539417467459,
        "lon": -70.6054050861371,
        "alt_km": 35777.37325163671,
        "timestamp": "2025-12-07T22:37:42.751048+00:00",
        "meta_object_name": "GALAXY 37 (G-37)",
        "meta_object_id": "2023-112A",
        "meta_epoch": "2025-12-07T06:10:57.790848",
        "meta_mean_motion": 1.00270729,
        "meta_eccentricity": 0.00024043,
        "meta_inclination": 0.0072,
        "meta_ra_of_asc_node": 338.735,
        "meta_arg_of_pericenter": 282.25,
        "meta_mean_anomaly": 141.0424,
        "meta_ephemeris_type": 0,
        "meta_classification_type": "U",
        "meta_norad_cat_id": 57493,
        "meta_element_set_no": 999,
        "meta_rev_at_epoch": 861,
        "meta_bstar": 0,
        "meta_mean_motion_dot": 5.3e-07,
        "meta_mean_motion_ddot": 0,
        "tle_line1": "1 57493U 23112A   25341.25761332  .00000053  00000+0  00000+0 0  9997",
        "tle_line2": "2 57493   0.0072 338.7350 0002404 282.2500 141.0424  1.00270729  8616"
      },
      "geometry": {
        "type": "Point",
        "coordinates": [
          -70.6054050861371,
          -0.02326539417467459
        ]
      }
    }
  ]
}